[{"OBJECT_NAME":"STARLINK-6315","OBJECT_ID":"2023-094U","EPOCH":"2026-03-09T22:00:01.999584","MEAN_MOTION":15.06069838,"ECCENTRICITY":3.615e-5,"INCLINATION":43.0006,"RA_OF_ASC_NODE":16.6045,"ARG_OF_PERICENTER":283.2103,"MEAN_ANOMALY":240.5881,"EPHEMERIS_TYPE":0,"CLASSIFICATION_TYPE":"U","NORAD_CAT_ID":57236,"ELEMENT_SET_NO":999,"REV_AT_EPOCH":577,"BSTAR":0.0020929095,"MEAN_MOTION_DOT":0.00031003,"MEAN_MOTION_DDOT":0},{"OBJECT_NAME":"USA 62","OBJECT_ID":"1990-050D","EPOCH":"2026-03-09T11:26:27.362112","MEAN_MOTION":13.63463645,"ECCENTRICITY":0.08775957,"INCLINATION":63.2946,"RA_OF_ASC_NODE":119.2359,"ARG_OF_PERICENTER":82.7401,"MEAN_ANOMALY":287.2429,"EPHEMERIS_TYPE":0,"CLASSIFICATION_TYPE":"U","NORAD_CAT_ID":20692,"ELEMENT_SET_NO":999,"REV_AT_EPOCH":9111,"BSTAR":0.00035081004,"MEAN_MOTION_DOT":4.907e-5,"MEAN_MOTION_DDOT":0}]
